IRIDIUM 36              
1 24967U 97056C   24353.22792761  .00000842  00000+0  27604-3 0  9993
2 24967  86.3971 248.9686 0001920  83.8156 276.3260 14.37297605426226
IRIDIUM 39              
1 25042U 97069D   24353.54469455  .00001472  00000+0  38455-3 0  9994
2 25042  86.3906 288.5872 0017478 182.7538 177.3572 14.48729275423064
IRIDIUM 38              
1 25043U 97069E   24353.87089336  .00001103  00000+0  35991-3 0  9990
2 25043  86.3952 309.0410 0002249  36.7755 323.3597 14.37787964420303
IRIDIUM 42              
1 25077U 97077A   24353.16933619  .00001025  00000+0  34587-3 0  9993
2 25077  86.3955 315.2840 0002312  68.5562 291.5882 14.36047082415215
IRIDIUM 44              
1 25078U 97077B   24353.88911731  .00001033  00000+0  32262-3 0  9991
2 25078  86.3949 297.3774 0000453 100.0131 260.1119 14.39917460417781
IRIDIUM 45              
1 25104U 97082A   24353.89950239  .00022804  00000+0  10269-2 0  9995
2 25104  86.3633 134.8345 0135831 283.1851  75.4263 15.12949253424941
IRIDIUM 24              
1 25105U 97082B   24353.88437361  .00001103  00000+0  33201-3 0  9992
2 25105  86.3925 156.7320 0010097 321.9960  38.0527 14.41740192417481
IRIDIUM 51              
1 25262U 98018A   24353.39545246  .00044076  00000+0  14883-2 0  9994
2 25262  86.3911 144.2715 0114893 217.6345 141.6823 15.24287712419340
